{
  "type": "FeatureCollection",
  "features": [
    {
      "type": "Feature",
      "properties": {
        "norad_id": 66857,
        "name": "STARLINK-36083",
        "group": "last-30-days",
        "lat": -3.6934882433449854,
        "lon": 125.58351177834126,
        "alt_km": 291.07257445126925,
        "timestamp": "2025-12-11T13:55:00.916241+00:00",
        "meta_object_name": "STARLINK-36083",
        "meta_object_id": "2025-281K",
        "meta_epoch": "2025-12-10T16:00:01.999584",
        "meta_mean_motion": 15.95976314,
        "meta_eccentricity": 0.00016557,
        "meta_inclination": 43.0014,
        "meta_ra_of_asc_node": 135.2616,
        "meta_arg_of_pericenter": 277.0441,
        "meta_mean_anomaly": 227.797,
        "meta_ephemeris_type": 0,
        "meta_classification_type": "U",
        "meta_norad_cat_id": 66857,
        "meta_element_set_no": 999,
        "meta_rev_at_epoch": 246,
        "meta_bstar": -0.0027805964,
        "meta_mean_motion_dot": -0.01181694,
        "meta_mean_motion_ddot": 0.00042645657,
        "tle_line1": "1 66857U 25281K   25344.66668981 -.01181694  42646-3 -27806-2 0  9990",
        "tle_line2": "2 66857  43.0014 135.2616 0001655 277.0441 227.7970 15.95976314  2468"
      },
      "geometry": {
        "type": "Point",
        "coordinates": [
          125.58351177834126,
          -3.6934882433449854
        ]
      }
    },
    {
      "type": "Feature",
      "properties": {
        "norad_id": 66858,
        "name": "STARLINK-35118",
        "group": "last-30-days",
        "lat": -2.1618129860147146,
        "lon": 127.22796727677405,
        "alt_km": 290.887428974439,
        "timestamp": "2025-12-11T13:55:00.916251+00:00",
        "meta_object_name": "STARLINK-35118",
        "meta_object_id": "2025-281L",
        "meta_epoch": "2025-12-10T16:00:01.999584",
        "meta_mean_motion": 15.96046904,
        "meta_eccentricity": 0.00016257,
        "meta_inclination": 43.0016,
        "meta_ra_of_asc_node": 135.2559,
        "meta_arg_of_pericenter": 274.4321,
        "meta_mean_anomaly": 232.4648,
        "meta_ephemeris_type": 0,
        "meta_classification_type": "U",
        "meta_norad_cat_id": 66858,
        "meta_element_set_no": 999,
        "meta_rev_at_epoch": 246,
        "meta_bstar": -0.002802372,
        "meta_mean_motion_dot": -0.01195394,
        "meta_mean_motion_ddot": 0.00043584987,
        "tle_line1": "1 66858U 25281L   25344.66668981 -.01195394  43585-3 -28024-2 0  9999",
        "tle_line2": "2 66858  43.0016 135.2559 0001625 274.4321 232.4648 15.96046904  2461"
      },
      "geometry": {
        "type": "Point",
        "coordinates": [
          127.22796727677405,
          -2.1618129860147146
        ]
      }
    },
    {
      "type": "Feature",
      "properties": {
        "norad_id": 66859,
        "name": "STARLINK-35646",
        "group": "last-30-days",
        "lat": -0.4425859397230521,
        "lon": 129.06856007318592,
        "alt_km": 290.50861097784036,
        "timestamp": "2025-12-11T13:55:00.916261+00:00",
        "meta_object_name": "STARLINK-35646",
        "meta_object_id": "2025-281M",
        "meta_epoch": "2025-12-10T16:00:01.999584",
        "meta_mean_motion": 15.96125298,
        "meta_eccentricity": 0.00016815,
        "meta_inclination": 43.0016,
        "meta_ra_of_asc_node": 135.2504,
        "meta_arg_of_pericenter": 276.3454,
        "meta_mean_anomaly": 232.8564,
        "meta_ephemeris_type": 0,
        "meta_classification_type": "U",
        "meta_norad_cat_id": 66859,
        "meta_element_set_no": 999,
        "meta_rev_at_epoch": 246,
        "meta_bstar": -0.0028252473,
        "meta_mean_motion_dot": -0.01210178,
        "meta_mean_motion_ddot": 0.00044610917,
        "tle_line1": "1 66859U 25281M   25344.66668981 -.01210178  44611-3 -28252-2 0  9992",
        "tle_line2": "2 66859  43.0016 135.2504 0001681 276.3454 232.8564 15.96125298  2467"
      },
      "geometry": {
        "type": "Point",
        "coordinates": [
          129.06856007318592,
          -0.4425859397230521
        ]
      }
    },
    {
      "type": "Feature",
      "properties": {
        "norad_id": 66860,
        "name": "STARLINK-35987",
        "group": "last-30-days",
        "lat": 8.450351887244276,
        "lon": 138.68393392461456,
        "alt_km": 288.9195284750185,
        "timestamp": "2025-12-11T13:55:00.916273+00:00",
        "meta_object_name": "STARLINK-35987",
        "meta_object_id": "2025-281N",
        "meta_epoch": "2025-12-10T16:00:01.999584",
        "meta_mean_motion": 15.96505755,
        "meta_eccentricity": 0.00015818,
        "meta_inclination": 43.0016,
        "meta_ra_of_asc_node": 135.2202,
        "meta_arg_of_pericenter": 268.6575,
        "meta_mean_anomaly": 252.4584,
        "meta_ephemeris_type": 0,
        "meta_classification_type": "U",
        "meta_norad_cat_id": 66860,
        "meta_element_set_no": 999,
        "meta_rev_at_epoch": 246,
        "meta_bstar": -0.0028282072,
        "meta_mean_motion_dot": -0.01236658,
        "meta_mean_motion_ddot": 0.00046592572,
        "tle_line1": "1 66860U 25281N   25344.66668981 -.01236658  46593-3 -28282-2 0  9999",
        "tle_line2": "2 66860  43.0016 135.2202 0001581 268.6575 252.4584 15.96505755  2461"
      },
      "geometry": {
        "type": "Point",
        "coordinates": [
          138.68393392461456,
          8.450351887244276
        ]
      }
    },
    {
      "type": "Feature",
      "properties": {
        "norad_id": 66861,
        "name": "STARLINK-35991",
        "group": "last-30-days",
        "lat": 3.0855259932249015,
        "lon": 132.84651495828427,
        "alt_km": 289.969673320129,
        "timestamp": "2025-12-11T13:55:00.916283+00:00",
        "meta_object_name": "STARLINK-35991",
        "meta_object_id": "2025-281P",
        "meta_epoch": "2025-12-10T16:00:01.999584",
        "meta_mean_motion": 15.96277539,
        "meta_eccentricity": 0.00015893,
        "meta_inclination": 43.0017,
        "meta_ra_of_asc_node": 135.2384,
        "meta_arg_of_pericenter": 271.8161,
        "meta_mean_anomaly": 242.1053,
        "meta_ephemeris_type": 0,
        "meta_classification_type": "U",
        "meta_norad_cat_id": 66861,
        "meta_element_set_no": 999,
        "meta_rev_at_epoch": 246,
        "meta_bstar": -0.0028387746,
        "meta_mean_motion_dot": -0.01225954,
        "meta_mean_motion_ddot": 0.00045750931,
        "tle_line1": "1 66861U 25281P   25344.66668981 -.01225954  45751-3 -28388-2 0  9999",
        "tle_line2": "2 66861  43.0017 135.2384 0001589 271.8161 242.1053 15.96277539  2462"
      },
      "geometry": {
        "type": "Point",
        "coordinates": [
          132.84651495828427,
          3.0855259932249015
        ]
      }
    },
    {
      "type": "Feature",
      "properties": {
        "norad_id": 66862,
        "name": "STARLINK-35974",
        "group": "last-30-days",
        "lat": 1.4233443135824053,
        "lon": 131.06470554357637,
        "alt_km": 290.16135345020393,
        "timestamp": "2025-12-11T13:55:00.916294+00:00",
        "meta_object_name": "STARLINK-35974",
        "meta_object_id": "2025-281Q",
        "meta_epoch": "2025-12-10T16:00:01.999584",
        "meta_mean_motion": 15.96204816,
        "meta_eccentricity": 0.00015852,
        "meta_inclination": 43.0016,
        "meta_ra_of_asc_node": 135.2443,
        "meta_arg_of_pericenter": 276.2426,
        "meta_mean_anomaly": 235.4564,
        "meta_ephemeris_type": 0,
        "meta_classification_type": "U",
        "meta_norad_cat_id": 66862,
        "meta_element_set_no": 999,
        "meta_rev_at_epoch": 246,
        "meta_bstar": -0.0028310506,
        "meta_mean_motion_dot": -0.01217847,
        "meta_mean_motion_ddot": 0.00045165679,
        "tle_line1": "1 66862U 25281Q   25344.66668981 -.01217847  45166-3 -28311-2 0  9998",
        "tle_line2": "2 66862  43.0016 135.2443 0001585 276.2426 235.4564 15.96204816  2467"
      },
      "geometry": {
        "type": "Point",
        "coordinates": [
          131.06470554357637,
          1.4233443135824053
        ]
      }
    },
    {
      "type": "Feature",
      "properties": {
        "norad_id": 66863,
        "name": "STARLINK-36134",
        "group": "last-30-days",
        "lat": 5.266420935751237,
        "lon": 135.19898607618234,
        "alt_km": 289.53433445254177,
        "timestamp": "2025-12-11T13:55:00.916304+00:00",
        "meta_object_name": "STARLINK-36134",
        "meta_object_id": "2025-281R",
        "meta_epoch": "2025-12-10T16:00:01.999584",
        "meta_mean_motion": 15.96368931,
        "meta_eccentricity": 0.00015593,
        "meta_inclination": 43.002,
        "meta_ra_of_asc_node": 135.2311,
        "meta_arg_of_pericenter": 271.3805,
        "meta_mean_anomaly": 245.4654,
        "meta_ephemeris_type": 0,
        "meta_classification_type": "U",
        "meta_norad_cat_id": 66863,
        "meta_element_set_no": 999,
        "meta_rev_at_epoch": 246,
        "meta_bstar": -0.0028390273,
        "meta_mean_motion_dot": -0.01232146,
        "meta_mean_motion_ddot": 0.00046217446,
        "tle_line1": "1 66863U 25281R   25344.66668981 -.01232146  46217-3 -28390-2 0  9993",
        "tle_line2": "2 66863  43.0020 135.2311 0001559 271.3805 245.4654 15.96368931  2465"
      },
      "geometry": {
        "type": "Point",
        "coordinates": [
          135.19898607618234,
          5.266420935751237
        ]
      }
    }
  ]
}